OBJECT_NAME,OBJECT_ID,EPOCH,MEAN_MOTION,ECCENTRICITY,INCLINATION,RA_OF_ASC_NODE,ARG_OF_PERICENTER,MEAN_ANOMALY,EPHEMERIS_TYPE,CLASSIFICATION_TYPE,NORAD_CAT_ID,ELEMENT_SET_NO,REV_AT_EPOCH,BSTAR,MEAN_MOTION_DOT,MEAN_MOTION_DDOT
TJS-14,2025-017A,2026-07-13T15:15:44.663040,1.00275152,.00018259,0.7247,297.5903,294.6330,306.6637,0,U,62804,999,553,0,.113E-5,0
SPAINSAT NG I,2025-021A,2026-07-13T11:53:18.425760,1.00271360,.00001965,0.0150,49.4669,192.7005,256.5149,0,U,62852,999,425,0,.148E-5,0
QZS-6 (MICHIBIKI-6),2025-023A,2026-07-13T13:53:41.676576,1.00267367,.00017856,0.0123,345.5701,146.8094,97.9469,0,U,62876,999,521,0,-.236E-5,0
ZHONGXING-10R,2025-036A,2026-07-13T14:23:41.538048,1.00272953,.00041489,0.0097,270.8258,236.7472,110.3323,0,U,63075,999,522,0,-.356E-5,0
TJS-15,2025-045A,2026-07-13T17:56:30.408288,1.00269569,.0003351,0.3063,85.6357,295.0634,274.4075,0,U,63157,999,502,0,-.269E-5,0
TIANLIAN 2-04,2025-062A,2026-07-13T15:33:14.491296,1.00270205,.0031602,4.3086,274.0593,9.3988,321.3904,0,U,63361,999,486,0,-.134E-5,0
TJS-16,2025-064A,2026-07-13T18:20:48.606144,1.00270806,.0002489,1.1643,81.2920,290.3397,355.8257,0,U,63397,999,465,0,-.111E-5,0
TJS-17,2025-073A,2026-07-13T18:17:39.505056,1.00270523,.0000992,1.1304,82.4646,303.0552,345.0327,0,U,63524,999,455,0,-.76E-6,0
TIANLIAN 2-05,2025-084A,2026-07-13T13:33:37.789344,1.00270609,.000256,4.3864,279.5330,153.7434,81.9321,0,U,63662,999,464,0,.125E-5,0
TJS-19,2025-097A,2026-07-13T17:33:28.505088,1.00266719,.0003966,3.2430,317.8726,245.4291,132.8569,0,U,63924,999,441,0,-.278E-5,0
CHINASAT 3B,2025-106A,2026-07-13T14:15:35.429184,1.00271851,.0003914,0.0233,141.2222,3.5926,167.8743,0,U,64062,999,432,0,-.49E-6,0
SXM-10,2025-122A,2026-07-13T14:37:25.836384,1.00271903,.00018282,0.0157,36.2449,322.9748,35.4661,0,U,64290,999,394,0,-.21E-6,0
COSMOS 2589,2025-131A,2026-07-13T17:21:07.191360,1.00273922,.0000927,0.0273,122.3287,83.5150,84.0384,0,U,64467,999,382,0,-.296E-5,0
CHINASAT 9C,2025-132A,2026-07-13T13:54:11.628864,1.00267689,.00028947,0.0152,59.4318,55.9404,116.8441,0,U,64470,999,441,0,0,0
MTG-S1,2025-143A,2026-07-13T13:27:45.851040,1.00273149,.00034958,0.5854,344.6795,262.0460,246.2339,0,U,64723,999,368,0,-.11E-6,0
DROR 1,2025-148A,2026-07-13T13:26:45.947328,1.00271629,.00019764,0.0488,261.3777,133.8365,93.9072,0,U,64784,999,356,0,-.38E-6,0
SHIYAN-29,2025-196A,2026-07-13T14:17:02.359680,1.00276730,.00133673,28.8495,18.2022,177.9193,44.8968,0,U,65486,999,314,0,-.285E-5,0
NUSANTARA LIMA (NUSANTARA 5),2025-205A,2026-07-13T05:26:36.057408,1.00270259,.000046,0.0048,108.0133,92.2195,285.3677,0,U,65588,999,298,0,-.36E-5,0
TJS-20,2025-238A,2026-07-13T13:37:38.873856,1.00274273,.00042767,5.4120,299.4476,181.6059,77.2436,0,U,66142,999,259,0,.27E-6,0
CMS-03 (GSAT-7R),2025-249B,2026-07-13T13:48:57.132000,1.00271167,.00014478,0.0315,271.8403,167.2435,133.5755,0,U,66311,999,261,0,-.81E-6,0
VIASAT-3 F2,2025-261A,2026-07-13T11:22:43.857408,1.00270985,.00007397,0.0059,252.2572,334.9101,155.8962,0,U,66454,999,305,0,-.237E-5,0
SHIJIAN-28 (SJ-28),2025-277A,2026-07-13T14:01:03.470880,1.00267620,.00011802,4.4718,271.7136,22.6298,324.2011,0,U,66549,999,241,0,-.359E-5,0
TJS-22,2025-290A,2026-07-12T19:22:51.874176,1.00269698,.00026955,1.4677,286.9080,319.1976,41.7959,0,U,66990,999,228,0,-.5E-7,0
TJS-23,2025-306A,2026-07-13T12:42:34.384032,1.00275110,.00050054,5.5291,297.3485,193.5330,166.7139,0,U,67226,999,215,0,.21E-6,0
FENGYUN 4C,2025-312A,2026-07-13T12:23:07.721376,1.00269020,.00006528,0.0381,174.1513,45.0000,31.0120,0,U,67246,999,204,0,-.327E-5,0
SHIJIAN-29A (SJ-29A),2025-315A,2026-07-13T17:14:04.132032,1.00272287,.0004858,3.4630,94.4731,52.7733,116.0145,0,U,67302,999,188,0,-.75E-6,0
SHIJIAN-29B (SJ-29B),2025-315C,2026-07-13T17:14:04.132032,1.00272585,.0004958,3.4620,94.4660,54.1372,114.7040,0,U,67403,999,195,0,-.76E-6,0
ELEKTRO-L 5,2026-028A,2026-07-12T23:32:12.769440,1.00271957,.0002054,0.2103,323.5750,175.8596,220.5701,0,U,67756,999,151,0,-.99E-6,0
JAM-E JAM 1,2026-028B,2026-07-13T13:37:29.917632,1.00272945,.00017305,0.2097,312.1108,321.2192,256.5012,0,U,67757,999,138,0,.152E-5,0
ECHOSTAR 25,2026-045A,2026-07-13T14:39:10.668096,1.00268275,.00016107,0.0261,62.7400,46.7894,291.7646,0,U,68126,999,125,0,0,0
TJS-24,2026-116A,2026-07-13T18:15:22.707072,1.00270110,.0000374,0.0739,95.2412,128.9406,71.5919,0,U,69235,999,49,0,-.236E-5,0
