TJS-14                  
1 62804U 25017A   26194.63593360  .00000113  00000+0  00000+0 0  9995
2 62804   0.7247 297.5903 0001825 294.6330 306.6637  1.00275152  5537
SPAINSAT NG I           
1 62852U 25021A   26194.49535215  .00000148  00000+0  00000+0 0  9990
2 62852   0.0150  49.4669 0000196 192.7005 256.5149  1.00271360  4252
QZS-6 (MICHIBIKI-6)     
1 62876U 25023A   26194.57895459 -.00000236  00000+0  00000+0 0  9995
2 62876   0.0123 345.5701 0001785 146.8094  97.9469  1.00267367  5219
ZHONGXING-10R           
1 63075U 25036A   26194.59978632 -.00000356  00000+0  00000+0 0  9991
2 63075   0.0097 270.8258 0004148 236.7472 110.3323  1.00272953  5220
TJS-15                  
1 63157U 25045A   26194.74757417 -.00000269  00000+0  00000+0 0  9998
2 63157   0.3063  85.6357 0003351 295.0634 274.4075  1.00269569  5025
TIANLIAN 2-04           
1 63361U 25062A   26194.64808439 -.00000134  00000+0  00000+0 0  9995
2 63361   4.3086 274.0593 0031602   9.3988 321.3904  1.00270205  4868
TJS-16                  
1 63397U 25064A   26194.76445146 -.00000111  00000+0  00000+0 0  9996
2 63397   1.1643  81.2920 0002489 290.3397 355.8257  1.00270806  4657
TJS-17                  
1 63524U 25073A   26194.76226279 -.00000076  00000+0  00000+0 0  9992
2 63524   1.1304  82.4646 0000992 303.0552 345.0327  1.00270523  4557
TIANLIAN 2-05           
1 63662U 25084A   26194.56502071  .00000125  00000+0  00000+0 0  9996
2 63662   4.3864 279.5330 0002560 153.7434  81.9321  1.00270609  4642
TJS-19                  
1 63924U 25097A   26194.73157992 -.00000278  00000+0  00000+0 0  9998
2 63924   3.2430 317.8726 0003966 245.4291 132.8569  1.00266719  4418
CHINASAT 3B             
1 64062U 25106A   26194.59416006 -.00000049  00000+0  00000+0 0  9997
2 64062   0.0233 141.2222 0003914   3.5926 167.8743  1.00271851  4324
SXM-10                  
1 64290U 25122A   26194.60932681 -.00000021  00000+0  00000+0 0  9992
2 64290   0.0157  36.2449 0001828 322.9748  35.4661  1.00271903  3942
COSMOS 2589             
1 64467U 25131A   26194.72299990 -.00000296  00000+0  00000+0 0  9994
2 64467   0.0273 122.3287 0000927  83.5150  84.0384  1.00273922  3822
CHINASAT 9C             
1 64470U 25132A   26194.57930126  .00000000  00000+0  00000+0 0  9997
2 64470   0.0152  59.4318 0002894  55.9404 116.8441  1.00267689  4414
MTG-S1                  
1 64723U 25143A   26194.56094735 -.00000011  00000+0  00000+0 0  9999
2 64723   0.5854 344.6795 0003495 262.0460 246.2339  1.00273149  3688
DROR 1                  
1 64784U 25148A   26194.56025402 -.00000038  00000+0  00000+0 0  9995
2 64784   0.0488 261.3777 0001976 133.8365  93.9072  1.00271629  3568
SHIYAN-29               
1 65486U 25196A   26194.59516620 -.00000285  00000+0  00000+0 0  9992
2 65486  28.8495  18.2022 0013367 177.9193  44.8968  1.00276730  3142
NUSANTARA LIMA (NUSANT*)
1 65588U 25205A   26194.22680622 -.00000360  00000+0  00000+0 0  9994
2 65588   0.0048 108.0133 0000460  92.2195 285.3677  1.00270259  2983
TJS-20                  
1 66142U 25238A   26194.56781104  .00000027  00000+0  00000+0 0  9990
2 66142   5.4120 299.4476 0004276 181.6059  77.2436  1.00274273  2594
CMS-03 (GSAT-7R)        
1 66311U 25249B   26194.57566125 -.00000081  00000+0  00000+0 0  9996
2 66311   0.0315 271.8403 0001447 167.2435 133.5755  1.00271167  2610
VIASAT-3 F2             
1 66454U 25261A   26194.47411872 -.00000237  00000+0  00000+0 0  9998
2 66454   0.0059 252.2572 0000739 334.9101 155.8962  1.00270985  3052
SHIJIAN-28 (SJ-28)      
1 66549U 25277A   26194.58406795 -.00000359  00000+0  00000+0 0  9995
2 66549   4.4718 271.7136 0001180  22.6298 324.2011  1.00267620  2416
TJS-22                  
1 66990U 25290A   26193.80754484 -.00000005  00000+0  00000+0 0  9993
2 66990   1.4677 286.9080 0002695 319.1976  41.7959  1.00269698  2286
TJS-23                  
1 67226U 25306A   26194.52956463  .00000021  00000+0  00000+0 0  9992
2 67226   5.5291 297.3485 0005005 193.5330 166.7139  1.00275110  2157
FENGYUN 4C              
1 67246U 25312A   26194.51606159 -.00000327  00000+0  00000+0 0  9994
2 67246   0.0381 174.1513 0000652  45.0000  31.0120  1.00269020  2046
SHIJIAN-29A (SJ-29A)    
1 67302U 25315A   26194.71810338 -.00000075  00000+0  00000+0 0  9998
2 67302   3.4630  94.4731 0004858  52.7733 116.0145  1.00272287  1880
SHIJIAN-29B (SJ-29B)    
1 67403U 25315C   26194.71810338 -.00000076  00000+0  00000+0 0  9991
2 67403   3.4620  94.4660 0004958  54.1372 114.7040  1.00272585  1956
ELEKTRO-L 5             
1 67756U 26028A   26193.98070335 -.00000099  00000+0  00000+0 0  9992
2 67756   0.2103 323.5750 0002054 175.8596 220.5701  1.00271957  1512
JAM-E JAM 1             
1 67757U 26028B   26194.56770738  .00000152  00000+0  00000+0 0  9991
2 67757   0.2097 312.1108 0001730 321.2192 256.5012  1.00272945  1382
ECHOSTAR 25             
1 68126U 26045A   26194.61054014  .00000000  00000+0  00000+0 0  9991
2 68126   0.0261  62.7400 0001610  46.7894 291.7646  1.00268275  1253
TJS-24                  
1 69235U 26116A   26194.76067948 -.00000236  00000+0  00000+0 0  9990
2 69235   0.0739  95.2412 0000374 128.9406  71.5919  1.00270110   490
